NORAD_CAT_ID,OBJECT_NAME,OBJECT_TYPE,EPOCH,MEAN_MOTION,ECCENTRICITY,INCLINATION,RA_OF_ASC_NODE,ARG_OF_PERICENTER,MEAN_ANOMALY,BSTAR,MEAN_MOTION_DOT,MEAN_MOTION_DDOT,TLE_LINE0,TLE_LINE1,TLE_LINE2,SEMIMAJOR_AXIS,PERIOD,APOGEE,PERIGEE,DECAYED
55676.0,STARLINK-5300,PAYLOAD,2024-06-15 19:02:50,14.98341778,0.0002923,70.0005,297.7738,271.1417,88.9407,6.7451e-05,7.12e-06,0.0,0 STARLINK-5300,1 55676U 23021BA  24167.79363696  .00000712  00000-0  67451-4 0  9993,2 55676  70.0005 297.7738 0002923 271.1417  88.9407 14.98341778 75128,6950.156,96.106,574.053,569.99,0.0
55676.0,STARLINK-5300,PAYLOAD,2024-06-16 12:40:19,14.98331862,0.0002846,70.0005,295.9223,271.8491,88.2342,4.9195e-05,4.94e-06,0.0,0 STARLINK-5300,1 55676U 23021BA  24168.52800174  .00000494  00000-0  49195-4 0  9994,2 55676  70.0005 295.9223 0002846 271.8491  88.2342 14.98331862 75236,6950.187,96.107,574.03,570.074,0.0
55676.0,STARLINK-5300,PAYLOAD,2024-06-16 17:28:43,14.98333821,0.0002746,70.0008,295.4183,268.4187,91.6657,6.5291e-05,6.86e-06,0.0,0 STARLINK-5300,1 55676U 23021BA  24168.72827956  .00000686  00000-0  65291-4 0  9991,2 55676  70.0008 295.4183 0002746 268.4187  91.6657 14.98333821 75269,6950.181,96.107,573.955,570.138,0.0
55676.0,STARLINK-5300,PAYLOAD,2024-06-17 14:18:28,14.98327598,0.0002707,70.0007,293.2299,269.2941,90.7908,-8.2017e-05,-1.071e-05,0.0,0 STARLINK-5300,1 55676U 23021BA  24169.59616632 -.00001071  00000-0 -82017-4 0  9990,2 55676  70.0007 293.2299 0002707 269.2941  90.7908 14.98327598 75090,6950.2,96.107,573.947,570.184,0.0
55676.0,STARLINK-5300,PAYLOAD,2024-06-18 12:44:20,14.98343753,0.0003029,70.0,290.8734,267.5664,92.5148,0.00012719,1.425e-05,0.0,0 STARLINK-5300,1 55676U 23021BA  24170.53078846  .00001425  00000-0  12719-3 0  9997,2 55676  70.0000 290.8734 0003029 267.5664  92.5148 14.98343753 75234,6950.15,96.106,574.121,569.91,0.0
55676.0,STARLINK-5300,PAYLOAD,2024-06-18 14:20:27,14.983459,0.0003015,69.9999,290.7049,267.642,92.4394,0.00015202,1.722e-05,0.0,0 STARLINK-5300,1 55676U 23021BA  24170.59754592  .00001722  00000-0  15202-3 0  9992,2 55676  69.9999 290.7049 0003015 267.6420  92.4394 14.98345900 75544,6950.144,96.106,574.104,569.913,0.0
55676.0,STARLINK-5300,PAYLOAD,2024-06-18 17:32:43,14.98347632,0.0002986,69.9998,290.3681,267.7808,92.3009,0.00017209,1.962e-05,0.0,0 STARLINK-5300,1 55676U 23021BA  24170.73106324  .00001962  00000-0  17209-3 0  9997,2 55676  69.9998 290.3681 0002986 267.7808  92.3009 14.98347632 75566,6950.138,96.106,574.079,569.928,0.0
55676.0,STARLINK-5300,PAYLOAD,2024-06-19 01:33:24,14.98335308,0.0002877,70.0017,289.5258,276.4917,83.5914,9.7813e-05,1.074e-05,0.0,0 STARLINK-5300,1 55676U 23021BA  24171.06487187  .00001074  00000-0  97813-4 0  9997,2 55676  70.0017 289.5258 0002877 276.4917  83.5914 14.98335308 75315,6950.176,96.107,574.041,570.042,0.0
55676.0,STARLINK-5300,PAYLOAD,2024-06-19 12:46:22,14.98312584,0.0003207,69.9999,288.3446,270.4504,89.6288,9.6056e-05,1.053e-05,0.0,0 STARLINK-5300,1 55676U 23021BA  24171.53220667  .00001053  00000-0  96056-4 0  9992,2 55676  69.9999 288.3446 0003207 270.4504  89.6288 14.98312584 75380,6950.247,96.108,574.341,569.883,0.0
55676.0,STARLINK-5300,PAYLOAD,2024-06-19 14:22:30,14.98315292,0.0003012,69.9996,288.1776,267.6043,92.4772,-5.7226e-05,-7.75e-06,0.0,0 STARLINK-5300,1 55676U 23021BA  24171.59896905 -.00000775  00000-0 -57226-4 0  9990,2 55676  69.9996 288.1776 0003012 267.6043  92.4772 14.98315292 75694,6950.238,96.108,574.197,570.01,0.0
55676.0,STARLINK-5300,PAYLOAD,2024-06-19 17:34:50,14.98270243,0.0003419,69.9988,287.841,272.5143,87.5625,-0.000546,-6.592e-05,0.0,0 STARLINK-5300,1 55676U 23021BA  24171.73253194 -.00006592  00000-0 -54600-3 0  9998,2 55676  69.9988 287.8410 0003419 272.5143  87.5625 14.98270243 75411,6950.378,96.111,574.619,569.866,0.0
55676.0,STARLINK-5300,PAYLOAD,2024-06-20 14:24:31,14.98335099,0.0003394,69.9997,285.6535,276.0416,84.0356,-4.8666e-05,-6.74e-06,0.0,0 STARLINK-5300,1 55676U 23021BA  24172.60036909 -.00000674  00000-0 -48666-4 0  9999,2 55676  69.9997 285.6535 0003394 276.0416  84.0356 14.98335099 75840,6950.177,96.107,574.401,569.683,0.0
55676.0,STARLINK-5300,PAYLOAD,2024-06-20 17:36:47,14.98341113,0.0003462,69.9998,285.3176,280.1761,79.9007,2.8059e-05,2.42e-06,0.0,0 STARLINK-5300,1 55676U 23021BA  24172.73388333  .00000242  00000-0  28059-4 0  9997,2 55676  69.9998 285.3176 0003462 280.1761  79.9007 14.98341113 75563,6950.159,96.106,574.43,569.617,0.0
55676.0,STARLINK-5300,PAYLOAD,2024-06-21 14:26:31,14.98340922,0.0003648,69.9997,283.1295,281.7194,78.3556,0.00040504,4.745e-05,0.0,0 STARLINK-5300,1 55676U 23021BA  24173.60175689  .00004745  00000-0  40504-3 0  9992,2 55676  69.9997 283.1295 0003648 281.7194  78.3556 14.98340922 75999,6950.159,96.106,574.56,569.489,0.0
55676.0,STARLINK-5300,PAYLOAD,2024-06-21 17:38:48,14.98348348,0.0003744,70.0014,282.7929,284.5775,75.4969,0.00069612,8.227e-05,0.0,0 STARLINK-5300,1 55676U 23021BA  24173.73528194  .00008227  00000-0  69612-3 0  9999,2 55676  70.0014 282.7929 0003744 284.5775  75.4969 14.98348348 75710,6950.136,96.106,574.603,569.399,0.0
55676.0,STARLINK-5300,PAYLOAD,2024-06-22 12:52:25,14.98341755,0.0004193,70.0012,280.7726,282.0331,78.0358,1.8464e-05,1.27e-06,0.0,0 STARLINK-5300,1 55676U 23021BA  24174.53640050  .00000127  00000-0  18464-4 0  9995,2 55676  70.0012 280.7726 0004193 282.0331  78.0358 14.98341755 75830,6950.157,96.106,574.936,569.107,0.0
55676.0,STARLINK-5300,PAYLOAD,2024-06-22 14:28:33,14.98336328,0.0003303,70.0028,280.6053,274.7983,85.2799,-0.00015042,-1.888e-05,0.0,0 STARLINK-5300,1 55676U 23021BA  24174.60316138 -.00001888  00000-0 -15042-3 0  9995,2 55676  70.0028 280.6053 0003303 274.7983  85.2799 14.98336328 76146,6950.173,96.107,574.334,569.743,0.0
55676.0,STARLINK-5300,PAYLOAD,2024-06-22 16:04:41,14.98333514,0.0003437,70.0021,280.4365,279.6968,80.3802,-8.0734e-05,-1.056e-05,0.0,0 STARLINK-5300,1 55676U 23021BA  24174.66992488 -.00001056  00000-0 -80734-4 0  9997,2 55676  70.0021 280.4365 0003437 279.6968  80.3802 14.98333514 76154,6950.182,96.107,574.436,569.658,0.0
55676.0,STARLINK-5300,PAYLOAD,2024-06-23 14:30:33,14.98340296,0.0003392,70.0007,278.081,269.3718,90.7052,-7.9861e-05,-1.046e-05,0.0,0 STARLINK-5300,1 55676U 23021BA  24175.60455913 -.00001046  00000-0 -79861-4 0  9997,2 55676  70.0007 278.0810 0003392 269.3718  90.7052 14.98340296 76297,6950.161,96.106,574.384,569.669,0.0
55676.0,STARLINK-5300,PAYLOAD,2024-06-24 14:32:34,14.98335265,0.0003696,70.0,275.5555,271.2009,88.8727,0.00013122,1.473e-05,0.0,0 STARLINK-5300,1 55676U 23021BA  24176.60595309  .00001473  00000-0  13122-3 0  9991,2 55676  70.0000 275.5555 0003696 271.2009  88.8727 14.98335265 76444,6950.177,96.107,574.61,569.473,0.0
55676.0,STARLINK-5300,PAYLOAD,2024-06-24 16:08:42,14.98336057,0.0003724,70.0,275.3871,271.9534,88.1198,0.00013643,1.535e-05,0.0,0 STARLINK-5300,1 55676U 23021BA  24176.67271239  .00001535  00000-0  13643-3 0  9998,2 55676  70.0000 275.3871 0003724 271.9534  88.1198 14.98336057 76158,6950.174,96.107,574.627,569.451,0.0
55676.0,STARLINK-5300,PAYLOAD,2024-06-25 12:58:27,14.98329869,0.0003465,70.0008,273.2003,261.614,98.4627,1.3474e-05,6.8e-07,0.0,0 STARLINK-5300,1 55676U 23021BA  24177.54059789  .00000068  00000-0  13474-4 0  9992,2 55676  70.0008 273.2003 0003465 261.6140  98.4627 14.98329869 76289,6950.193,96.107,574.467,569.65,0.0
55676.0,STARLINK-5300,PAYLOAD,2024-06-25 14:34:35,14.98328724,0.0003496,70.0007,273.032,262.6545,97.4216,-2.8954e-06,-1.28e-06,0.0,0 STARLINK-5300,1 55676U 23021BA  24177.60735900 -.00000128  00000-0 -28954-5 0  9994,2 55676  70.0007 273.0320 0003496 262.6545  97.4216 14.98328724 76598,6950.197,96.107,574.492,569.632,0.0
55676.0,STARLINK-5300,PAYLOAD,2024-06-25 16:10:43,14.98328814,0.0003509,70.0006,272.8636,263.3294,96.7465,-3.9486e-06,-1.4e-06,0.0,0 STARLINK-5300,1 55676U 23021BA  24177.67411893 -.00000140  00000-0 -39486-5 0  9999,2 55676  70.0006 272.8636 0003509 263.3294  96.7465 14.98328814 76608,6950.197,96.107,574.5,569.623,0.0
55676.0,STARLINK-5300,PAYLOAD,2024-06-26 09:48:11,14.98338444,0.0003625,70.0003,271.0112,266.2023,93.8722,7.121e-05,7.57e-06,0.0,0 STARLINK-5300,1 55676U 23021BA  24178.40846920  .00000757  00000-0  71210-4 0  9996,2 55676  70.0003 271.0112 0003625 266.2023  93.8722 14.98338444 76419,6950.167,96.106,574.551,569.512,0.0
55676.0,STARLINK-5300,PAYLOAD,2024-06-27 13:02:29,14.98325658,0.000408,69.9992,268.1474,269.7016,90.3676,-9.9231e-06,-2.12e-06,0.0,0 STARLINK-5300,1 55676U 23021BA  24179.54339945 -.00000212  00000-0 -99231-5 0  9998,2 55676  69.9992 268.1474 0004080 269.7016  90.3676 14.98325658 76588,6950.206,96.107,574.907,569.236,0.0
55676.0,STARLINK-5300,PAYLOAD,2024-06-27 16:14:45,14.98326578,0.0004104,69.9993,267.8108,269.7673,90.3016,-6.4397e-06,-1.7e-06,0.0,0 STARLINK-5300,1 55676U 23021BA  24179.67691896 -.00000170  00000-0 -64397-5 0  9996,2 55676  69.9993 267.8108 0004104 269.7673  90.3016 14.98326578 76901,6950.203,96.107,574.921,569.216,0.0
55676.0,STARLINK-5300,PAYLOAD,2024-06-28 13:04:29,14.98339281,0.0004088,69.9993,265.6234,266.8228,93.2464,0.0001173,1.307e-05,0.0,0 STARLINK-5300,1 55676U 23021BA  24180.54478764  .00001307  00000-0  11730-3 0  9993,2 55676  69.9993 265.6234 0004088 266.8228  93.2464 14.98339281 76737,6950.164,96.106,574.87,569.188,0.0
55676.0,STARLINK-5300,PAYLOAD,2024-06-28 14:40:37,14.98345472,0.0003989,69.9993,265.4555,264.7419,95.3284,0.00018148,2.074e-05,0.0,0 STARLINK-5300,1 55676U 23021BA  24180.61154154  .00002074  00000-0  18148-3 0  9997,2 55676  69.9993 265.4555 0003989 264.7419  95.3284 14.98345472 77046,6950.145,96.106,574.782,569.238,0.0
55676.0,STARLINK-5300,PAYLOAD,2024-06-29 05:05:50,14.98329051,0.0003427,70.0011,263.9409,270.4745,89.6021,0.0002548,2.948e-05,0.0,0 STARLINK-5300,1 55676U 23021BA  24181.21238861  .00002948  00000-0  25480-3 0  9999,2 55676  70.0011 263.9409 0003427 270.4745  89.6021 14.98329051 76830,6950.196,96.107,574.443,569.679,0.0
